{
  "type": "FeatureCollection",
  "features": [
    {
      "type": "Feature",
      "properties": {
        "norad_id": 29876,
        "name": "FENGYUN 1C DEB",
        "group": "fengyun-1c-debris",
        "lat": 74.49897725869582,
        "lon": 14.72209716037787,
        "alt_km": 815.6663613454102,
        "timestamp": "2025-12-22T14:45:57.674424+00:00",
        "meta_object_name": "FENGYUN 1C DEB",
        "meta_object_id": "1999-025FW",
        "meta_epoch": "2025-12-22T02:42:38.445408",
        "meta_mean_motion": 14.20303192,
        "meta_eccentricity": 0.00609632,
        "meta_inclination": 98.3319,
        "meta_ra_of_asc_node": 46.1457,
        "meta_arg_of_pericenter": 350.0366,
        "meta_mean_anomaly": 39.3019,
        "meta_ephemeris_type": 0,
        "meta_classification_type": "U",
        "meta_norad_cat_id": 29876,
        "meta_element_set_no": 999,
        "meta_rev_at_epoch": 98050,
        "meta_bstar": 0.00013788658,
        "meta_mean_motion_dot": 2.6e-06,
        "meta_mean_motion_ddot": 0,
        "tle_line1": "1 29876U 99025FW  25356.11294497  .00000260  00000+0  13789-3 0  9993",
        "tle_line2": "2 29876  98.3319  46.1457 0060963 350.0366  39.3019 14.20303192980503"
      },
      "geometry": {
        "type": "Point",
        "coordinates": [
          14.72209716037787,
          74.49897725869582
        ]
      }
    },
    {
      "type": "Feature",
      "properties": {
        "norad_id": 29877,
        "name": "FENGYUN 1C DEB",
        "group": "fengyun-1c-debris",
        "lat": 79.39371428434607,
        "lon": -125.01227075406631,
        "alt_km": 803.324440350636,
        "timestamp": "2025-12-22T14:45:57.674435+00:00",
        "meta_object_name": "FENGYUN 1C DEB",
        "meta_object_id": "1999-025FX",
        "meta_epoch": "2025-12-21T18:56:27.275712",
        "meta_mean_motion": 14.24809732,
        "meta_eccentricity": 0.00462852,
        "meta_inclination": 98.5369,
        "meta_ra_of_asc_node": 0.8506,
        "meta_arg_of_pericenter": 191.6927,
        "meta_mean_anomaly": 350.4923,
        "meta_ephemeris_type": 0,
        "meta_classification_type": "U",
        "meta_norad_cat_id": 29877,
        "meta_element_set_no": 999,
        "meta_rev_at_epoch": 98102,
        "meta_bstar": 0.00035110652,
        "meta_mean_motion_dot": 7.85e-06,
        "meta_mean_motion_ddot": 0,
        "tle_line1": "1 29877U 99025FX  25355.78920458  .00000785  00000+0  35111-3 0  9994",
        "tle_line2": "2 29877  98.5369   0.8506 0046285 191.6927 350.4923 14.24809732981020"
      },
      "geometry": {
        "type": "Point",
        "coordinates": [
          -125.01227075406631,
          79.39371428434607
        ]
      }
    },
    {
      "type": "Feature",
      "properties": {
        "norad_id": 29878,
        "name": "FENGYUN 1C DEB",
        "group": "fengyun-1c-debris",
        "lat": -64.95245687807487,
        "lon": -176.6554445179042,
        "alt_km": 553.6186937777693,
        "timestamp": "2025-12-22T14:45:57.674446+00:00",
        "meta_object_name": "FENGYUN 1C DEB",
        "meta_object_id": "1999-025FY",
        "meta_epoch": "2025-12-21T00:55:49.334016",
        "meta_mean_motion": 15.11544984,
        "meta_eccentricity": 0.00244714,
        "meta_inclination": 96.9464,
        "meta_ra_of_asc_node": 166.7881,
        "meta_arg_of_pericenter": 141.4808,
        "meta_mean_anomaly": 218.8177,
        "meta_ephemeris_type": 0,
        "meta_classification_type": "U",
        "meta_norad_cat_id": 29878,
        "meta_element_set_no": 999,
        "meta_rev_at_epoch": 98773,
        "meta_bstar": 0.004785914,
        "meta_mean_motion_dot": 0.00082504,
        "meta_mean_motion_ddot": 0,
        "tle_line1": "1 29878U 99025FY  25355.03876544  .00082504  00000+0  47859-2 0  9999",
        "tle_line2": "2 29878  96.9464 166.7881 0024471 141.4808 218.8177 15.11544984987735"
      },
      "geometry": {
        "type": "Point",
        "coordinates": [
          -176.6554445179042,
          -64.95245687807487
        ]
      }
    },
    {
      "type": "Feature",
      "properties": {
        "norad_id": 29880,
        "name": "FENGYUN 1C DEB",
        "group": "fengyun-1c-debris",
        "lat": -27.008039944177742,
        "lon": -81.7343679704742,
        "alt_km": 949.3034629050389,
        "timestamp": "2025-12-22T14:45:57.674456+00:00",
        "meta_object_name": "FENGYUN 1C DEB",
        "meta_object_id": "1999-025GA",
        "meta_epoch": "2025-12-20T18:24:09.218304",
        "meta_mean_motion": 13.9393618,
        "meta_eccentricity": 0.02321942,
        "meta_inclination": 98.1954,
        "meta_ra_of_asc_node": 272.4116,
        "meta_arg_of_pericenter": 79.0661,
        "meta_mean_anomaly": 345.5403,
        "meta_ephemeris_type": 0,
        "meta_classification_type": "U",
        "meta_norad_cat_id": 29880,
        "meta_element_set_no": 999,
        "meta_rev_at_epoch": 95674,
        "meta_bstar": 0.00078847551,
        "meta_mean_motion_dot": 1.267e-05,
        "meta_mean_motion_ddot": 0,
        "tle_line1": "1 29880U 99025GA  25354.76677336  .00001267  00000+0  78848-3 0  9999",
        "tle_line2": "2 29880  98.1954 272.4116 0232194  79.0661 345.5403 13.93936180956746"
      },
      "geometry": {
        "type": "Point",
        "coordinates": [
          -81.7343679704742,
          -27.008039944177742
        ]
      }
    },
    {
      "type": "Feature",
      "properties": {
        "norad_id": 29881,
        "name": "FENGYUN 1C DEB",
        "group": "fengyun-1c-debris",
        "lat": -69.31513513277226,
        "lon": -8.279351587395727,
        "alt_km": 1138.3651041137846,
        "timestamp": "2025-12-22T14:45:57.674467+00:00",
        "meta_object_name": "FENGYUN 1C DEB",
        "meta_object_id": "1999-025GB",
        "meta_epoch": "2025-12-20T21:01:30.942912",
        "meta_mean_motion": 13.59649156,
        "meta_eccentricity": 0.0293091,
        "meta_inclination": 98.7227,
        "meta_ra_of_asc_node": 326.1775,
        "meta_arg_of_pericenter": 50.5786,
        "meta_mean_anomaly": 12.9005,
        "meta_ephemeris_type": 0,
        "meta_classification_type": "U",
        "meta_norad_cat_id": 29881,
        "meta_element_set_no": 999,
        "meta_rev_at_epoch": 93345,
        "meta_bstar": 0.0019196,
        "meta_mean_motion_dot": 1.854e-05,
        "meta_mean_motion_ddot": 0,
        "tle_line1": "1 29881U 99025GB  25354.87605258  .00001854  00000+0  19196-2 0  9998",
        "tle_line2": "2 29881  98.7227 326.1775 0293091  50.5786  12.9005 13.59649156933451"
      },
      "geometry": {
        "type": "Point",
        "coordinates": [
          -8.279351587395727,
          -69.31513513277226
        ]
      }
    },
    {
      "type": "Feature",
      "properties": {
        "norad_id": 29884,
        "name": "FENGYUN 1C DEB",
        "group": "fengyun-1c-debris",
        "lat": -58.70984697329037,
        "lon": -164.93327205492616,
        "alt_km": 785.246216283801,
        "timestamp": "2025-12-22T14:45:57.674478+00:00",
        "meta_object_name": "FENGYUN 1C DEB",
        "meta_object_id": "1999-025GE",
        "meta_epoch": "2025-12-22T00:36:15.546816",
        "meta_mean_motion": 14.4033179,
        "meta_eccentricity": 0.004438,
        "meta_inclination": 99.6023,
        "meta_ra_of_asc_node": 30.5785,
        "meta_arg_of_pericenter": 110.4983,
        "meta_mean_anomaly": 311.2062,
        "meta_ephemeris_type": 0,
        "meta_classification_type": "U",
        "meta_norad_cat_id": 29884,
        "meta_element_set_no": 999,
        "meta_rev_at_epoch": 98683,
        "meta_bstar": 0.00054836267,
        "meta_mean_motion_dot": 1.706e-05,
        "meta_mean_motion_ddot": 0,
        "tle_line1": "1 29884U 99025GE  25356.02517994  .00001706  00000+0  54836-3 0  9996",
        "tle_line2": "2 29884  99.6023  30.5785 0044380 110.4983 311.2062 14.40331790986836"
      },
      "geometry": {
        "type": "Point",
        "coordinates": [
          -164.93327205492616,
          -58.70984697329037
        ]
      }
    },
    {
      "type": "Feature",
      "properties": {
        "norad_id": 29885,
        "name": "FENGYUN 1C DEB",
        "group": "fengyun-1c-debris",
        "lat": -48.892413515630636,
        "lon": 101.30724556743118,
        "alt_km": 858.3182798175712,
        "timestamp": "2025-12-22T14:45:57.674489+00:00",
        "meta_object_name": "FENGYUN 1C DEB",
        "meta_object_id": "1999-025GF",
        "meta_epoch": "2025-12-21T19:16:00.400224",
        "meta_mean_motion": 14.13585598,
        "meta_eccentricity": 0.01188647,
        "meta_inclination": 98.3566,
        "meta_ra_of_asc_node": 290.2454,
        "meta_arg_of_pericenter": 138.2682,
        "meta_mean_anomaly": 277.6547,
        "meta_ephemeris_type": 0,
        "meta_classification_type": "U",
        "meta_norad_cat_id": 29885,
        "meta_element_set_no": 999,
        "meta_rev_at_epoch": 97585,
        "meta_bstar": 0.00010504561,
        "meta_mean_motion_dot": 1.73e-06,
        "meta_mean_motion_ddot": 0,
        "tle_line1": "1 29885U 99025GF  25355.80278241  .00000173  00000+0  10505-3 0  9993",
        "tle_line2": "2 29885  98.3566 290.2454 0118864 138.2682 277.6547 14.13585598975856"
      },
      "geometry": {
        "type": "Point",
        "coordinates": [
          101.30724556743118,
          -48.892413515630636
        ]
      }
    }
  ]
}